start=new Date('2021-12-19T00:00:00.000Z').valueOf();
sats=[{"LAUNCH_DATE":"2020-04-22","ELEMENT_SET_NO":"999","RCS_SIZE":"LARGE","GP_ID":"191940661","CENTER_NAME":"EARTH","REF_FRAME":"TEME","EPOCH":"2021-12-18T12:14:06.527328","REV_AT_EPOCH":"9292","MEAN_MOTION":"15.06392893","SITE":"AFETR","TLE_LINE1":"1 45563U 20025AJ  21352.50979777 -.00001387  00000-0 -74228-4 0  9994","OBJECT_NAME":"STARLINK-1355","TIME_SYSTEM":"UTC","TLE_LINE2":"2 45563  53.0541 169.7420 0002453  91.3341 268.7929 15.06392893 92928","PERIAPSIS":"545.537","OBJECT_TYPE":"PAYLOAD","SEMIMAJOR_AXIS":"6925.370","CLASSIFICATION_TYPE":"U","BSTAR":"-0.00007422800000","FILE":"3243681","OBJECT_ID":"2020-025AJ","MEAN_ANOMALY":"268.7929","NORAD_CAT_ID":"45563","RA_OF_ASC_NODE":"169.7420","MEAN_MOTION_DDOT":"0.0000000000000","COUNTRY_CODE":"US","INCLINATION":"53.0541","DECAY_DATE":null,"EPHEMERIS_TYPE":"0","MEAN_MOTION_DOT":"-0.00001387","APOAPSIS":"548.934","PERIOD":"95.593","MEAN_ELEMENT_THEORY":"SGP4","ARG_OF_PERICENTER":"91.3341","ECCENTRICITY":"0.00024530"},{"DECAY_DATE":null,"INCLINATION":"53.0537","MEAN_MOTION_DDOT":"0.0000000000000","COUNTRY_CODE":"US","ECCENTRICITY":"0.00023180","PERIOD":"95.592","MEAN_ELEMENT_THEORY":"SGP4","ARG_OF_PERICENTER":"87.5108","EPHEMERIS_TYPE":"0","MEAN_MOTION_DOT":"0.00000687","APOAPSIS":"548.800","SITE":"AFETR","CENTER_NAME":"EARTH","EPOCH":"2021-12-18T12:08:47.675904","REF_FRAME":"TEME","REV_AT_EPOCH":"9292","MEAN_MOTION":"15.06406091","GP_ID":"191939409","LAUNCH_DATE":"2020-04-22","RCS_SIZE":"LARGE","ELEMENT_SET_NO":"999","MEAN_ANOMALY":"272.6147","RA_OF_ASC_NODE":"169.7435","NORAD_CAT_ID":"45564","FILE":"3243681","BSTAR":"0.00006505400000","OBJECT_ID":"2020-025AK","TIME_SYSTEM":"UTC","TLE_LINE2":"2 45564  53.0537 169.7435 0002318  87.5108 272.6147 15.06406091 92920","PERIAPSIS":"545.590","SEMIMAJOR_AXIS":"6925.330","OBJECT_TYPE":"PAYLOAD","CLASSIFICATION_TYPE":"U","OBJECT_NAME":"STARLINK-1356","TLE_LINE1":"1 45564U 20025AK  21352.50610736  .00000687  00000-0  65054-4 0  9999"},{"MEAN_MOTION_DDOT":"0.0000000000000","COUNTRY_CODE":"US","INCLINATION":"53.0534","DECAY_DATE":null,"EPHEMERIS_TYPE":"0","MEAN_MOTION_DOT":"0.00000619","APOAPSIS":"548.730","PERIOD":"95.593","MEAN_ELEMENT_THEORY":"SGP4","ARG_OF_PERICENTER":"85.3760","ECCENTRICITY":"0.00021530","LAUNCH_DATE":"2020-04-22","ELEMENT_SET_NO":"999","RCS_SIZE":"LARGE","GP_ID":"191939659","CENTER_NAME":"EARTH","REV_AT_EPOCH":"9292","EPOCH":"2021-12-18T11:58:12.471744","REF_FRAME":"TEME","MEAN_MOTION":"15.06391817","SITE":"AFETR","OBJECT_NAME":"STARLINK-1357","TLE_LINE1":"1 45565U 20025AL  21352.49875546  .00000619  00000-0  60458-4 0  9998","TIME_SYSTEM":"UTC","PERIAPSIS":"545.748","TLE_LINE2":"2 45565  53.0534 169.7856 0002153  85.3760 274.7475 15.06391817 92928","SEMIMAJOR_AXIS":"6925.374","OBJECT_TYPE":"PAYLOAD","CLASSIFICATION_TYPE":"U","FILE":"3243681","OBJECT_ID":"2020-025AL","BSTAR":"0.00006045800000","MEAN_ANOMALY":"274.7475","RA_OF_ASC_NODE":"169.7856","NORAD_CAT_ID":"45565"},{"APOAPSIS":"548.804","EPHEMERIS_TYPE":"0","MEAN_MOTION_DOT":"0.00000967","ARG_OF_PERICENTER":"86.7411","PERIOD":"95.593","MEAN_ELEMENT_THEORY":"SGP4","ECCENTRICITY":"0.00022670","COUNTRY_CODE":"US","MEAN_MOTION_DDOT":"0.0000000000000","INCLINATION":"53.0536","DECAY_DATE":null,"OBJECT_NAME":"STARLINK-1358","TLE_LINE1":"1 45566U 20025AM  21352.51350735  .00000967  00000-0  83867-4 0  9995","CLASSIFICATION_TYPE":"U","OBJECT_TYPE":"PAYLOAD","SEMIMAJOR_AXIS":"6925.369","TIME_SYSTEM":"UTC","PERIAPSIS":"545.664","TLE_LINE2":"2 45566  53.0536 169.7257 0002267  86.7411 273.3837 15.06393228 92925","FILE":"3243681","BSTAR":"0.00008386700000","OBJECT_ID":"2020-025AM","NORAD_CAT_ID":"45566","RA_OF_ASC_NODE":"169.7257","MEAN_ANOMALY":"273.3837","LAUNCH_DATE":"2020-04-22","ELEMENT_SET_NO":"999","RCS_SIZE":"LARGE","GP_ID":"191940411","EPOCH":"2021-12-18T12:19:27.035040","REV_AT_EPOCH":"9292","REF_FRAME":"TEME","MEAN_MOTION":"15.06393228","CENTER_NAME":"EARTH","SITE":"AFETR"},{"COUNTRY_CODE":"US","MEAN_MOTION_DDOT":"0.0000000000000","DECAY_DATE":null,"INCLINATION":"53.0531","APOAPSIS":"548.903","EPHEMERIS_TYPE":"0","MEAN_MOTION_DOT":"0.00000941","ECCENTRICITY":"0.00024440","ARG_OF_PERICENTER":"90.2715","PERIOD":"95.592","MEAN_ELEMENT_THEORY":"SGP4","GP_ID":"191941161","LAUNCH_DATE":"2020-04-22","ELEMENT_SET_NO":"999","RCS_SIZE":"LARGE","SITE":"AFETR","REV_AT_EPOCH":"9293","REF_FRAME":"TEME","EPOCH":"2021-12-18T12:35:20.791680","MEAN_MOTION":"15.06401015","CENTER_NAME":"EARTH","OBJECT_TYPE":"PAYLOAD","CLASSIFICATION_TYPE":"U","SEMIMAJOR_AXIS":"6925.345","TIME_SYSTEM":"UTC","TLE_LINE2":"2 45567  53.0531 169.6656 0002444  90.2715 269.8554 15.06401015 92938","PERIAPSIS":"545.518","TLE_LINE1":"1 45567U 20025AN  21352.52454620  .00000941  00000-0  82108-4 0  9994","OBJECT_NAME":"STARLINK-1361","RA_OF_ASC_NODE":"169.6656","NORAD_CAT_ID":"45567","MEAN_ANOMALY":"269.8554","FILE":"3243681","BSTAR":"0.00008210800000","OBJECT_ID":"2020-025AN"},{"EPHEMERIS_TYPE":"0","MEAN_MOTION_DOT":"-0.00001474","APOAPSIS":"548.886","ECCENTRICITY":"0.00023830","PERIOD":"95.593","MEAN_ELEMENT_THEORY":"SGP4","ARG_OF_PERICENTER":"92.0513","MEAN_MOTION_DDOT":"0.0000000000000","COUNTRY_CODE":"US","DECAY_DATE":null,"INCLINATION":"53.0535","TIME_SYSTEM":"UTC","TLE_LINE2":"2 45568  53.0535 169.7094 0002383  92.0513 268.0749 15.06392717 92922","PERIAPSIS":"545.586","CLASSIFICATION_TYPE":"U","OBJECT_TYPE":"PAYLOAD","SEMIMAJOR_AXIS":"6925.371","OBJECT_NAME":"STARLINK-1363","TLE_LINE1":"1 45568U 20025AP  21352.51622569 -.00001474  00000-0 -80061-4 0  9993","MEAN_ANOMALY":"268.0749","NORAD_CAT_ID":"45568","RA_OF_ASC_NODE":"169.7094","FILE":"3243681","BSTAR":"-0.00008006100000","OBJECT_ID":"2020-025AP","GP_ID":"191939909","LAUNCH_DATE":"2020-04-22","ELEMENT_SET_NO":"999","RCS_SIZE":"LARGE","SITE":"AFETR","CENTER_NAME":"EARTH","REF_FRAME":"TEME","EPOCH":"2021-12-18T12:23:21.899616","REV_AT_EPOCH":"9292","MEAN_MOTION":"15.06392717"},{"DECAY_DATE":null,"INCLINATION":"53.0534","COUNTRY_CODE":"US","MEAN_MOTION_DDOT":"0.0000000000000","ECCENTRICITY":"0.00024360","ARG_OF_PERICENTER":"84.8466","MEAN_ELEMENT_THEORY":"SGP4","PERIOD":"95.592","APOAPSIS":"548.885","MEAN_MOTION_DOT":"-0.00000234","EPHEMERIS_TYPE":"0","SITE":"AFETR","MEAN_MOTION":"15.06405125","REF_FRAME":"TEME","EPOCH":"2021-12-18T12:40:40.736064","REV_AT_EPOCH":"9292","CENTER_NAME":"EARTH","GP_ID":"191940159","RCS_SIZE":"LARGE","ELEMENT_SET_NO":"999","LAUNCH_DATE":"2020-04-22","NORAD_CAT_ID":"45569","RA_OF_ASC_NODE":"169.6527","MEAN_ANOMALY":"275.2801","FILE":"3243681","OBJECT_ID":"2020-025AQ","BSTAR":"0.00000320210000","CLASSIFICATION_TYPE":"U","OBJECT_TYPE":"PAYLOAD","SEMIMAJOR_AXIS":"6925.333","TLE_LINE2":"2 45569  53.0534 169.6527 0002436  84.8466 275.2801 15.06405125 92924","PERIAPSIS":"545.511","TIME_SYSTEM":"UTC","OBJECT_NAME":"STARLINK-1366","TLE_LINE1":"1 45569U 20025AQ  21352.52824926 -.00000234  00000-0  32021-5 0  9992"},{"GP_ID":"191940911","LAUNCH_DATE":"2020-04-22","RCS_SIZE":"LARGE","ELEMENT_SET_NO":"999","SITE":"AFETR","REV_AT_EPOCH":"9292","EPOCH":"2021-12-18T12:30:02.615904","REF_FRAME":"TEME","MEAN_MOTION":"15.06387901","CENTER_NAME":"EARTH","SEMIMAJOR_AXIS":"6925.386","OBJECT_TYPE":"PAYLOAD","CLASSIFICATION_TYPE":"U","TIME_SYSTEM":"UTC","TLE_LINE2":"2 45570  53.0532 169.6842 0002612  85.1124 275.0163 15.06387901 92925","PERIAPSIS":"545.442","OBJECT_NAME":"STARLINK-1376","TLE_LINE1":"1 45570U 20025AR  21352.52086361  .00000573  00000-0  57407-4 0  9996","NORAD_CAT_ID":"45570","RA_OF_ASC_NODE":"169.6842","MEAN_ANOMALY":"275.0163","BSTAR":"0.00005740700000","FILE":"3243681","OBJECT_ID":"2020-025AR","COUNTRY_CODE":"US","MEAN_MOTION_DDOT":"0.0000000000000","DECAY_DATE":null,"INCLINATION":"53.0532","APOAPSIS":"549.060","EPHEMERIS_TYPE":"0","MEAN_MOTION_DOT":"0.00000573","ECCENTRICITY":"0.00026120","ARG_OF_PERICENTER":"85.1124","PERIOD":"95.593","MEAN_ELEMENT_THEORY":"SGP4"},{"PERIOD":"95.592","MEAN_ELEMENT_THEORY":"SGP4","ARG_OF_PERICENTER":"90.6055","ECCENTRICITY":"0.00021920","EPHEMERIS_TYPE":"0","MEAN_MOTION_DOT":"0.00001151","APOAPSIS":"548.718","INCLINATION":"53.0541","DECAY_DATE":null,"MEAN_MOTION_DDOT":"0.0000000000000","COUNTRY_CODE":"US","BSTAR":"0.00009618700000","FILE":"3243715","OBJECT_ID":"2020-025AS","MEAN_ANOMALY":"269.5185","RA_OF_ASC_NODE":"158.7308","NORAD_CAT_ID":"45571","TLE_LINE1":"1 45571U 20025AS  21352.73557989  .00001151  00000-0  96187-4 0  9990","OBJECT_NAME":"STARLINK-1261","TIME_SYSTEM":"UTC","TLE_LINE2":"2 45571  53.0541 158.7308 0002192  90.6055 269.5185 15.06404348 92500","PERIAPSIS":"545.682","OBJECT_TYPE":"PAYLOAD","SEMIMAJOR_AXIS":"6925.335","CLASSIFICATION_TYPE":"U","CENTER_NAME":"EARTH","REV_AT_EPOCH":"9250","EPOCH":"2021-12-18T17:39:14.102496","REF_FRAME":"TEME","MEAN_MOTION":"15.06404348","SITE":"AFETR","LAUNCH_DATE":"2020-04-22","ELEMENT_SET_NO":"999","RCS_SIZE":"LARGE","GP_ID":"191945010"},{"TLE_LINE1":"1 45572U 20025AT  21352.46281268  .00001005  00000-0  86370-4 0  9996","OBJECT_NAME":"STARLINK-1320","SEMIMAJOR_AXIS":"6925.334","OBJECT_TYPE":"PAYLOAD","CLASSIFICATION_TYPE":"U","TIME_SYSTEM":"UTC","TLE_LINE2":"2 45572  53.0541 159.9560 0002450  96.0133 264.1135 15.06404869 93064","PERIAPSIS":"545.502","BSTAR":"0.00008637000000","FILE":"3243681","OBJECT_ID":"2020-025AT","NORAD_CAT_ID":"45572","RA_OF_ASC_NODE":"159.9560","MEAN_ANOMALY":"264.1135","LAUNCH_DATE":"2020-04-22","RCS_SIZE":"LARGE","ELEMENT_SET_NO":"999","GP_ID":"191939410","EPOCH":"2021-12-18T11:06:27.015552","REV_AT_EPOCH":"9306","REF_FRAME":"TEME","MEAN_MOTION":"15.06404869","CENTER_NAME":"EARTH","SITE":"AFETR","APOAPSIS":"548.895","EPHEMERIS_TYPE":"0","MEAN_MOTION_DOT":"0.00001005","ARG_OF_PERICENTER":"96.0133","PERIOD":"95.592","MEAN_ELEMENT_THEORY":"SGP4","ECCENTRICITY":"0.00024500","COUNTRY_CODE":"US","MEAN_MOTION_DDOT":"0.0000000000000","INCLINATION":"53.0541","DECAY_DATE":null}];
